start=new Date('2022-03-06T00:00:00.000Z').valueOf();
sats=[{"MEAN_ANOMALY":"281.4064","INCLINATION":"53.0540","EPOCH":"2022-03-05T22:00:11.825856","RA_OF_ASC_NODE":"297.2481","TLE_LINE2":"2 47738  53.0540 297.2481 0001238  78.7064 281.4064 15.06410912 57148","EPHEMERIS_TYPE":"0","MEAN_MOTION_DDOT":"0.0000000000000","REF_FRAME":"TEME","FILE":"3346512","LAUNCH_DATE":"2021-03-04","NORAD_CAT_ID":"47738","RCS_SIZE":"LARGE","MEAN_MOTION_DOT":"0.00002453","OBJECT_NAME":"STARLINK-2149","PERIAPSIS":"546.323","DECAY_DATE":null,"ARG_OF_PERICENTER":"78.7064","MEAN_MOTION":"15.06410912","CLASSIFICATION_TYPE":"U","APOAPSIS":"548.037","GP_ID":"198017138","COUNTRY_CODE":"US","TLE_LINE1":"1 47738U 21017S   22064.91680354  .00002453  00000-0  18345-3 0  9998","ELEMENT_SET_NO":"999","OBJECT_TYPE":"PAYLOAD","PERIOD":"95.591","SITE":"AFETR","SEMIMAJOR_AXIS":"6925.315","BSTAR":"0.00018345000000","MEAN_ELEMENT_THEORY":"SGP4","REV_AT_EPOCH":"5714","CENTER_NAME":"EARTH","TIME_SYSTEM":"UTC","OBJECT_ID":"2021-017S","ECCENTRICITY":"0.00012380"},{"BSTAR":"0.00048830000000","MEAN_ELEMENT_THEORY":"SGP4","REV_AT_EPOCH":"5679","TIME_SYSTEM":"UTC","CENTER_NAME":"EARTH","OBJECT_ID":"2021-017T","ECCENTRICITY":"0.00016380","TLE_LINE1":"1 47739U 21017T   22064.89790613  .00007003  00000-0  48830-3 0  9994","ELEMENT_SET_NO":"999","OBJECT_TYPE":"PAYLOAD","PERIOD":"95.591","SEMIMAJOR_AXIS":"6925.284","SITE":"AFETR","RCS_SIZE":"LARGE","OBJECT_NAME":"STARLINK-2150","MEAN_MOTION_DOT":"0.00007003","PERIAPSIS":"546.014","DECAY_DATE":null,"MEAN_MOTION":"15.06421226","ARG_OF_PERICENTER":"64.7341","CLASSIFICATION_TYPE":"U","COUNTRY_CODE":"US","GP_ID":"198017388","APOAPSIS":"548.283","INCLINATION":"53.0549","MEAN_ANOMALY":"295.3817","EPOCH":"2022-03-05T21:32:59.089632","EPHEMERIS_TYPE":"0","TLE_LINE2":"2 47739  53.0549 322.3298 0001638  64.7341 295.3817 15.06421226 56791","RA_OF_ASC_NODE":"322.3298","MEAN_MOTION_DDOT":"0.0000000000000","REF_FRAME":"TEME","FILE":"3346512","NORAD_CAT_ID":"47739","LAUNCH_DATE":"2021-03-04"},{"CLASSIFICATION_TYPE":"U","APOAPSIS":"548.405","GP_ID":"198018139","COUNTRY_CODE":"US","DECAY_DATE":null,"ARG_OF_PERICENTER":"66.6289","MEAN_MOTION":"15.06406049","PERIAPSIS":"545.985","RCS_SIZE":"LARGE","OBJECT_NAME":"STARLINK-2152","MEAN_MOTION_DOT":"0.00004318","FILE":"3346512","REF_FRAME":"TEME","NORAD_CAT_ID":"47740","LAUNCH_DATE":"2021-03-04","MEAN_MOTION_DDOT":"0.0000000000000","EPOCH":"2022-03-05T22:41:20.280768","TLE_LINE2":"2 47740  53.0536 307.1173 0001747  66.6289 293.4883 15.06406049 57008","EPHEMERIS_TYPE":"0","RA_OF_ASC_NODE":"307.1173","MEAN_ANOMALY":"293.4883","INCLINATION":"53.0536","OBJECT_ID":"2021-017U","ECCENTRICITY":"0.00017470","MEAN_ELEMENT_THEORY":"SGP4","BSTAR":"0.00030858000000","REV_AT_EPOCH":"5700","CENTER_NAME":"EARTH","TIME_SYSTEM":"UTC","SITE":"AFETR","SEMIMAJOR_AXIS":"6925.330","OBJECT_TYPE":"PAYLOAD","PERIOD":"95.592","ELEMENT_SET_NO":"999","TLE_LINE1":"1 47740U 21017U   22064.94537362  .00004318  00000-0  30858-3 0  9999"},{"SITE":"AFETR","SEMIMAJOR_AXIS":"6925.355","PERIOD":"95.592","OBJECT_TYPE":"PAYLOAD","ELEMENT_SET_NO":"999","TLE_LINE1":"1 47741U 21017V   22064.96012111  .00001898  00000-0  14632-3 0  9994","OBJECT_ID":"2021-017V","ECCENTRICITY":"0.00017050","CENTER_NAME":"EARTH","TIME_SYSTEM":"UTC","MEAN_ELEMENT_THEORY":"SGP4","BSTAR":"0.00014632000000","REV_AT_EPOCH":"5696","LAUNCH_DATE":"2021-03-04","NORAD_CAT_ID":"47741","REF_FRAME":"TEME","FILE":"3346512","MEAN_MOTION_DDOT":"0.0000000000000","EPHEMERIS_TYPE":"0","TLE_LINE2":"2 47741  53.0542 307.0522 0001705  65.8569 294.2598 15.06397958 56963","RA_OF_ASC_NODE":"307.0522","EPOCH":"2022-03-05T23:02:34.463904","MEAN_ANOMALY":"294.2598","INCLINATION":"53.0542","COUNTRY_CODE":"US","GP_ID":"198018390","APOAPSIS":"548.401","CLASSIFICATION_TYPE":"U","MEAN_MOTION":"15.06397958","ARG_OF_PERICENTER":"65.8569","DECAY_DATE":null,"PERIAPSIS":"546.039","OBJECT_NAME":"STARLINK-2154","RCS_SIZE":"LARGE","MEAN_MOTION_DOT":"0.00001898"},{"COUNTRY_CODE":"US","GP_ID":"198017638","APOAPSIS":"548.195","CLASSIFICATION_TYPE":"U","MEAN_MOTION":"15.06413962","ARG_OF_PERICENTER":"68.0306","DECAY_DATE":null,"PERIAPSIS":"546.147","RCS_SIZE":"LARGE","MEAN_MOTION_DOT":"0.00007878","OBJECT_NAME":"STARLINK-2156","LAUNCH_DATE":"2021-03-04","NORAD_CAT_ID":"47742","REF_FRAME":"TEME","FILE":"3346512","MEAN_MOTION_DDOT":"0.0000000000000","EPHEMERIS_TYPE":"0","TLE_LINE2":"2 47742  53.0523 297.3035 0001479  68.0306 292.0840 15.06413962 57146","RA_OF_ASC_NODE":"297.3035","EPOCH":"2022-03-05T21:44:16.728288","MEAN_ANOMALY":"292.0840","INCLINATION":"53.0523","ECCENTRICITY":"0.00014790","OBJECT_ID":"2021-017W","TIME_SYSTEM":"UTC","CENTER_NAME":"EARTH","BSTAR":"0.00054700000000","MEAN_ELEMENT_THEORY":"SGP4","REV_AT_EPOCH":"5714","SEMIMAJOR_AXIS":"6925.306","SITE":"AFETR","PERIOD":"95.591","OBJECT_TYPE":"PAYLOAD","ELEMENT_SET_NO":"999","TLE_LINE1":"1 47742U 21017W   22064.90574917  .00007878  00000-0  54700-3 0  9990"},{"SEMIMAJOR_AXIS":"6925.302","SITE":"AFETR","OBJECT_TYPE":"PAYLOAD","PERIOD":"95.591","ELEMENT_SET_NO":"999","TLE_LINE1":"1 47743U 21017X   22064.93154586  .00005966  00000-0  41890-3 0  9992","ECCENTRICITY":"0.00016190","OBJECT_ID":"2021-017X","MEAN_ELEMENT_THEORY":"SGP4","BSTAR":"0.00041890000000","REV_AT_EPOCH":"5712","TIME_SYSTEM":"UTC","CENTER_NAME":"EARTH","FILE":"3346512","REF_FRAME":"TEME","NORAD_CAT_ID":"47743","LAUNCH_DATE":"2021-03-04","MEAN_MOTION_DDOT":"0.0000000000000","EPOCH":"2022-03-05T22:21:25.562304","EPHEMERIS_TYPE":"0","TLE_LINE2":"2 47743  53.0551 297.1752 0001619  65.8630 294.2529 15.06415326 57125","RA_OF_ASC_NODE":"297.1752","INCLINATION":"53.0551","MEAN_ANOMALY":"294.2529","CLASSIFICATION_TYPE":"U","GP_ID":"198017888","COUNTRY_CODE":"US","APOAPSIS":"548.288","DECAY_DATE":null,"ARG_OF_PERICENTER":"65.8630","MEAN_MOTION":"15.06415326","PERIAPSIS":"546.045","RCS_SIZE":"LARGE","OBJECT_NAME":"STARLINK-2157","MEAN_MOTION_DOT":"0.00005966"},{"MEAN_MOTION_DDOT":"0.0000000000000","LAUNCH_DATE":"2021-03-04","NORAD_CAT_ID":"47744","FILE":"3346512","REF_FRAME":"TEME","MEAN_ANOMALY":"288.6662","INCLINATION":"53.0542","TLE_LINE2":"2 47744  53.0542 297.2854 0001644  71.4505 288.6662 15.06405116 57145","EPHEMERIS_TYPE":"0","RA_OF_ASC_NODE":"297.2854","EPOCH":"2022-03-05T21:49:35.112288","MEAN_MOTION":"15.06405116","ARG_OF_PERICENTER":"71.4505","DECAY_DATE":null,"GP_ID":"198018639","COUNTRY_CODE":"US","APOAPSIS":"548.336","CLASSIFICATION_TYPE":"U","RCS_SIZE":"LARGE","MEAN_MOTION_DOT":"0.00002213","OBJECT_NAME":"STARLINK-2158","PERIAPSIS":"546.059","PERIOD":"95.592","OBJECT_TYPE":"PAYLOAD","SITE":"AFETR","SEMIMAJOR_AXIS":"6925.333","TLE_LINE1":"1 47744U 21017Y   22064.90943417  .00002213  00000-0  16739-3 0  9995","ELEMENT_SET_NO":"999","OBJECT_ID":"2021-017Y","ECCENTRICITY":"0.00016440","CENTER_NAME":"EARTH","TIME_SYSTEM":"UTC","BSTAR":"0.00016739000000","MEAN_ELEMENT_THEORY":"SGP4","REV_AT_EPOCH":"5714"},{"GP_ID":"198018890","APOAPSIS":"548.306","COUNTRY_CODE":"US","CLASSIFICATION_TYPE":"U","ARG_OF_PERICENTER":"73.0088","MEAN_MOTION":"15.06417842","DECAY_DATE":null,"PERIAPSIS":"546.012","MEAN_MOTION_DOT":"0.00002619","RCS_SIZE":"LARGE","OBJECT_NAME":"STARLINK-2159","NORAD_CAT_ID":"47745","LAUNCH_DATE":"2021-03-04","REF_FRAME":"TEME","FILE":"3346512","MEAN_MOTION_DDOT":"0.0000000000000","RA_OF_ASC_NODE":"307.1566","TLE_LINE2":"2 47745  53.0530 307.1566 0001656  73.0088 287.1083 15.06417842 56959","EPHEMERIS_TYPE":"0","EPOCH":"2022-03-05T22:30:42.573600","MEAN_ANOMALY":"287.1083","INCLINATION":"53.0530","ECCENTRICITY":"0.00016560","OBJECT_ID":"2021-017Z","TIME_SYSTEM":"UTC","CENTER_NAME":"EARTH","REV_AT_EPOCH":"5695","BSTAR":"0.00019455000000","MEAN_ELEMENT_THEORY":"SGP4","SEMIMAJOR_AXIS":"6925.294","SITE":"AFETR","PERIOD":"95.591","OBJECT_TYPE":"PAYLOAD","ELEMENT_SET_NO":"999","TLE_LINE1":"1 47745U 21017Z   22064.93799275  .00002619  00000-0  19455-3 0  9998"},{"MEAN_MOTION_DOT":"0.00002826","RCS_SIZE":"LARGE","OBJECT_NAME":"STARLINK-2160","PERIAPSIS":"545.915","DECAY_DATE":null,"MEAN_MOTION":"15.06410786","ARG_OF_PERICENTER":"66.4709","CLASSIFICATION_TYPE":"U","APOAPSIS":"548.446","GP_ID":"198017139","COUNTRY_CODE":"US","MEAN_ANOMALY":"293.6472","INCLINATION":"53.0549","EPOCH":"2022-03-05T22:20:06.271296","EPHEMERIS_TYPE":"0","TLE_LINE2":"2 47746  53.0549 307.1722 0001827  66.4709 293.6472 15.06410786 56943","RA_OF_ASC_NODE":"307.1722","MEAN_MOTION_DDOT":"0.0000000000000","REF_FRAME":"TEME","FILE":"3346512","NORAD_CAT_ID":"47746","LAUNCH_DATE":"2021-03-04","MEAN_ELEMENT_THEORY":"SGP4","BSTAR":"0.00020852000000","REV_AT_EPOCH":"5694","CENTER_NAME":"EARTH","TIME_SYSTEM":"UTC","ECCENTRICITY":"0.00018270","OBJECT_ID":"2021-017AA","TLE_LINE1":"1 47746U 21017AA  22064.93062814  .00002826  00000-0  20852-3 0  9994","ELEMENT_SET_NO":"999","OBJECT_TYPE":"PAYLOAD","PERIOD":"95.591","SITE":"AFETR","SEMIMAJOR_AXIS":"6925.316"},{"REF_FRAME":"TEME","FILE":"3346512","NORAD_CAT_ID":"47747","LAUNCH_DATE":"2021-03-04","MEAN_MOTION_DDOT":"0.0000000000000","EPOCH":"2022-03-05T22:16:06.860352","TLE_LINE2":"2 47747  53.0535 297.2005 0001604  68.7318 291.3842 15.06406501 57123","EPHEMERIS_TYPE":"0","RA_OF_ASC_NODE":"297.2005","MEAN_ANOMALY":"291.3842","INCLINATION":"53.0535","CLASSIFICATION_TYPE":"U","GP_ID":"198017389","COUNTRY_CODE":"US","APOAPSIS":"548.304","DECAY_DATE":null,"MEAN_MOTION":"15.06406501","ARG_OF_PERICENTER":"68.7318","PERIAPSIS":"546.083","OBJECT_NAME":"STARLINK-2161","RCS_SIZE":"LARGE","MEAN_MOTION_DOT":"0.00000682","SITE":"AFETR","SEMIMAJOR_AXIS":"6925.329","OBJECT_TYPE":"PAYLOAD","PERIOD":"95.592","ELEMENT_SET_NO":"999","TLE_LINE1":"1 47747U 21017AB  22064.92785718  .00000682  00000-0  64680-4 0  9995","OBJECT_ID":"2021-017AB","ECCENTRICITY":"0.00016040","BSTAR":"0.00006468000000","MEAN_ELEMENT_THEORY":"SGP4","REV_AT_EPOCH":"5712","CENTER_NAME":"EARTH","TIME_SYSTEM":"UTC"}];
